ONEWEB-0545             
1 54647U 22166F   25344.78213040  .00000080  00000+0  16329-3 0  9997
2 54647  87.9217 281.5647 0002006  89.0634 271.0730 13.21826181146614
ONEWEB-0580             
1 54648U 22166G   25345.20997832 -.00000019  00000+0 -77591-4 0  9997
2 54648  87.9218 281.4783 0001790  88.4629 271.6710 13.21825109146716
ONEWEB-0582             
1 54649U 22166H   25345.10136656  .00000050  00000+0  88434-4 0  9997
2 54649  87.9220 281.4929 0001928  92.7018 267.4337 13.21825022146672
ONEWEB-0583             
1 54650U 22166J   25345.11288497 -.00000011  00000+0 -59126-4 0  9996
2 54650  87.9218 281.5153 0001864  79.8642 280.2702 13.21824714146686
ONEWEB-0584             
1 54651U 22166K   25345.20832012 -.00000013  00000+0 -63526-4 0  9996
2 54651  87.9218 281.4826 0001727  89.2642 270.8689 13.21824308146684
ONEWEB-0585             
1 54652U 22166L   25344.77882501  .00000088  00000+0  18076-3 0  9995
2 54652  87.9216 281.5531 0001747  73.6191 286.5135 13.21827739146631
ONEWEB-0586             
1 54653U 22166M   25344.56491916  .00000067  00000+0  13113-3 0  9993
2 54653  87.9218 281.6210 0001837  82.6690 277.4653 13.21824595146601
ONEWEB-0587             
1 54654U 22166N   25345.10466125  .00000028  00000+0  36553-4 0  9990
2 54654  87.9228 281.4689 0001696  64.1893 295.9415 13.21825151146839
